0 COSMOS 2251 DEB
1 35974U 93036AVQ 13281.23677682  .00002054  00000-0  62488-3 0  2530
2 35974 074.0325 121.3399 0018383 245.2184 114.7040 14.42617574241159
0 COSMOS 2251 DEB
1 35974U 93036AVQ 13283.24782102  .00002095  00000-0  63686-3 0  2544
2 35974 074.0494 117.5874 0019654 236.9580 123.0100 14.42627337241440
0 COSMOS 2251 DEB
1 35974U 93036AVQ 13285.18949660  .00002220  00000-0  67428-3 0  2552
2 35974 074.0405 114.0006 0018829 233.0810 126.8622 14.42637382241720
0 COSMOS 2251 DEB
1 35974U 93036AVQ 13287.20051061  .00002402  00000-0  72896-3 0  2564
2 35974 074.0335 110.2777 0017260 237.7749 122.1735 14.42649684242010
0 COSMOS 2251 DEB
1 35974U 93036AVQ 13288.17133909  .00002550  00000-0  77333-3 0  2579
2 35974 074.0358 108.4765 0017702 225.7261 134.2912 14.42657087242150
0 COSMOS 2251 DEB
1 35974U 93036AVQ 13290.18231689  .00002706  00000-0  82000-3 0  2588
2 35974 074.0316 104.7417 0016865 229.1760 130.8234 14.42670708242444
0 COSMOS 2251 DEB
1 35974U 93036AVQ 13291.84656193  .00002861  00000-0  86602-3 0  2598
2 35974 074.0307 101.6473 0017420 236.0852 123.9335 14.42683637242685
0 COSMOS 2251 DEB
1 35974U 93036AVQ 13293.78815558  .00003012  00000-0  91070-3 0  2601
2 35974 074.0316 098.0400 0018792 240.4111 119.6068 14.42698991242969
